NORAD_CAT_ID,OBJECT_NAME,OBJECT_TYPE,EPOCH,MEAN_MOTION,ECCENTRICITY,INCLINATION,RA_OF_ASC_NODE,ARG_OF_PERICENTER,MEAN_ANOMALY,BSTAR,MEAN_MOTION_DOT,MEAN_MOTION_DDOT,TLE_LINE0,TLE_LINE1,TLE_LINE2,SEMIMAJOR_AXIS,PERIOD,APOGEE,PERIGEE,DECAYED
53971.0,STARLINK-4639,PAYLOAD,2024-05-15 12:00:19,15.08851136,0.0002146,53.2111,321.2496,89.3429,270.7809,-4.8632e-05,-1.062e-05,0.0,0 STARLINK-4639,1 53971U 22125H   24136.50022621 -.00001062  00000-0 -48632-4 0  9999,2 53971  53.2111 321.2496 0002146  89.3429 270.7809 15.08851136 89272,6917.846,95.437,541.196,538.227,0.0
53971.0,STARLINK-4639,PAYLOAD,2024-05-15 21:32:38,15.08853335,0.0001653,53.2156,319.4669,90.9633,269.1548,0.00016673,2.367e-05,0.0,0 STARLINK-4639,1 53971U 22125H   24136.89766479  .00002367  00000-0  16673-3 0  9993,2 53971  53.2156 319.4669 0001653  90.9633 269.1548 15.08853335 89263,6917.84,95.437,540.848,538.561,0.0
53971.0,STARLINK-4639,PAYLOAD,2024-05-16 11:51:06,15.08841697,0.0001785,53.2177,316.7914,90.1661,269.9535,0.00023184,3.404e-05,0.0,0 STARLINK-4639,1 53971U 22125H   24137.49383037  .00003404  00000-0  23184-3 0  9993,2 53971  53.2177 316.7914 0001785  90.1661 269.9535 15.08841697 89428,6917.875,95.437,540.975,538.505,0.0
53971.0,STARLINK-4639,PAYLOAD,2024-05-16 18:12:39,15.08853999,0.0001642,53.2138,315.6006,92.0843,268.0337,0.00070128,0.00010895,0.0,0 STARLINK-4639,1 53971U 22125H   24137.75878687  .00010895  00000-0  70128-3 0  9994,2 53971  53.2138 315.6006 0001642  92.0843 268.0337 15.08853999 89394,6917.838,95.437,540.839,538.567,0.0
53971.0,STARLINK-4639,PAYLOAD,2024-05-17 05:20:21,15.08850525,0.0001023,53.2143,313.5212,85.1816,274.9293,0.00063153,9.78e-05,0.0,0 STARLINK-4639,1 53971U 22125H   24138.22246663  .00009780  00000-0  63153-3 0  9991,2 53971  53.2143 313.5212 0001023  85.1816 274.9293 15.08850525 89537,6917.848,95.437,540.421,539.006,0.0
53971.0,STARLINK-4639,PAYLOAD,2024-05-17 18:03:26,15.08837852,0.0002817,53.2166,311.1381,103.6374,256.4932,0.00029287,4.376e-05,0.0,0 STARLINK-4639,1 53971U 22125H   24138.75239529  .00004376  00000-0  29287-3 0  9998,2 53971  53.2166 311.1381 0002817 103.6374 256.4932 15.08837852 89612,6917.887,95.438,541.701,537.803,0.0
53971.0,STARLINK-4639,PAYLOAD,2024-05-17 21:14:13,15.08831415,0.0001709,53.2157,310.5459,102.1885,257.9298,0.00013706,1.893e-05,0.0,0 STARLINK-4639,1 53971U 22125H   24138.88487702  .00001893  00000-0  13706-3 0  9990,2 53971  53.2157 310.5459 0001709 102.1885 257.9298 15.08831415 89565,6917.907,95.438,540.954,538.589,0.0
53971.0,STARLINK-4639,PAYLOAD,2024-05-18 14:43:27,15.08859991,0.0001471,53.2143,307.2748,103.0461,257.0695,0.001049,0.00016455,0.0,0 STARLINK-4639,1 53971U 22125H   24139.61351219  .00016455  00000-0  10490-2 0  9991,2 53971  53.2143 307.2748 0001471 103.0461 257.0695 15.08859991 89673,6917.819,95.436,540.702,538.667,0.0
53971.0,STARLINK-4639,PAYLOAD,2024-05-18 17:54:13,15.08881235,9.71e-05,53.2159,306.6797,78.2813,281.8288,0.0019832,0.00031451,0.0,0 STARLINK-4639,1 53971U 22125H   24139.74598937  .00031451  00000-0  19832-2 0  9997,2 53971  53.2159 306.6797 0000971  78.2813 281.8288 15.08881235 89764,6917.754,95.435,540.291,538.948,0.0
53971.0,STARLINK-4639,PAYLOAD,2024-05-18 21:04:59,15.08896062,0.0001074,53.2174,306.0855,81.9736,278.1378,0.0023106,0.00036734,0.0,0 STARLINK-4639,1 53971U 22125H   24139.87846454  .00036734  00000-0  23106-2 0  9999,2 53971  53.2174 306.0855 0001074  81.9736 278.1378 15.08896062 89718,6917.709,95.434,540.317,538.831,0.0
53971.0,STARLINK-4639,PAYLOAD,2024-05-19 17:45:01,15.08830206,7.69e-05,53.2165,302.2193,98.3157,261.7922,0.0013525,0.00021297,0.0,0 STARLINK-4639,1 53971U 22125H   24140.73959861  .00021297  00000-0  13525-2 0  9995,2 53971  53.2165 302.2193 0000769  98.3157 261.7922 15.08830206 89913,6917.91,95.438,540.307,539.243,0.0
53971.0,STARLINK-4639,PAYLOAD,2024-05-20 11:14:15,15.08851875,8.15e-05,53.2164,298.9486,97.4979,262.6105,0.0014092,0.00022218,0.0,0 STARLINK-4639,1 53971U 22125H   24141.46824014  .00022218  00000-0  14092-2 0  9991,2 53971  53.2164 298.9486 0000815  97.4979 262.6105 15.08851875 90024,6917.844,95.437,540.273,539.145,0.0
53971.0,STARLINK-4639,PAYLOAD,2024-05-20 14:25:02,15.08855172,8.47e-05,53.2169,298.3552,103.3181,256.7906,0.0011783,0.00018522,0.0,0 STARLINK-4639,1 53971U 22125H   24141.60071848  .00018522  00000-0  11783-2 0  9993,2 53971  53.2169 298.3552 0000847 103.3181 256.7906 15.08855172 89973,6917.834,95.437,540.285,539.113,0.0
53971.0,STARLINK-4639,PAYLOAD,2024-05-21 09:29:39,15.08853663,0.0001709,53.2165,294.7867,69.053,291.0645,0.00084719,0.00013226,0.0,0 STARLINK-4639,1 53971U 22125H   24142.39559697  .00013226  00000-0  84719-3 0  9999,2 53971  53.2165 294.7867 0001709  69.0530 291.0645 15.08853663 90160,6917.839,95.437,540.886,538.521,0.0
53971.0,STARLINK-4639,PAYLOAD,2024-05-21 14:15:48,15.0884895,9.36e-05,53.2162,293.892,59.505,300.6034,0.00036937,5.597e-05,0.0,0 STARLINK-4639,1 53971U 22125H   24142.59431592  .00005597  00000-0  36937-3 0  9995,2 53971  53.2162 293.8920 0000936  59.5050 300.6034 15.08848950 90127,6917.853,95.437,540.366,539.071,0.0
53971.0,STARLINK-4639,PAYLOAD,2024-05-21 17:26:35,15.08849426,9.55e-05,53.2168,293.2986,67.0221,293.0872,0.00032334,4.863e-05,0.0,0 STARLINK-4639,1 53971U 22125H   24142.72679483  .00004863  00000-0  32334-3 0  9995,2 53971  53.2168 293.2986 0000955  67.0221 293.0872 15.08849426 90218,6917.852,95.437,540.377,539.056,0.0
53971.0,STARLINK-4639,PAYLOAD,2024-05-23 13:57:23,15.08832361,0.0001052,53.2168,284.9712,93.2888,266.8225,0.00024939,3.683e-05,0.0,0 STARLINK-4639,1 53971U 22125H   24144.58151724  .00003683  00000-0  24939-3 0  9995,2 53971  53.2168 284.9712 0001052  93.2888 266.8225 15.08832361 90424,6917.904,95.438,540.497,539.041,0.0
53971.0,STARLINK-4639,PAYLOAD,2024-05-23 15:32:46,15.0883266,0.0001446,53.2174,284.6743,75.2881,284.8271,0.0001555,2.187e-05,0.0,0 STARLINK-4639,1 53971U 22125H   24144.64775998  .00002187  00000-0  15550-3 0  9994,2 53971  53.2174 284.6743 0001446  75.2881 284.8271 15.08832660 90504,6917.903,95.438,540.768,538.767,0.0
53971.0,STARLINK-4639,PAYLOAD,2024-05-24 13:48:10,15.08849012,0.000125,53.2165,280.5159,70.5645,289.5482,0.00050357,7.737e-05,0.0,0 STARLINK-4639,1 53971U 22125H   24145.57511743  .00007737  00000-0  50357-3 0  9993,2 53971  53.2165 280.5159 0001250  70.5645 289.5482 15.08849012 90571,6917.853,95.437,540.583,538.853,0.0
53971.0,STARLINK-4639,PAYLOAD,2024-05-24 18:34:19,15.08863971,0.0001271,53.2163,279.6197,83.5385,276.5752,0.00083464,0.00013029,0.0,0 STARLINK-4639,1 53971U 22125H   24145.77383224  .00013029  00000-0  83464-3 0  9992,2 53971  53.2163 279.6197 0001271  83.5385 276.5752 15.08863971 90675,6917.807,95.436,540.551,538.793,0.0
53971.0,STARLINK-4639,PAYLOAD,2024-05-25 12:03:34,15.08831411,0.0001024,53.2169,276.3532,63.1886,296.9211,-0.00015948,-2.824e-05,0.0,0 STARLINK-4639,1 53971U 22125H   24146.50248268 -.00002824  00000-0 -15948-3 0  9997,2 53971  53.2169 276.3532 0001024  63.1886 296.9211 15.08831411 90786,6917.907,95.438,540.48,539.063,0.0
53971.0,STARLINK-4639,PAYLOAD,2024-05-25 15:14:21,15.0879019,9.74e-05,53.2167,275.7541,80.8692,279.2411,-0.0015373,-0.00024637,0.0,0 STARLINK-4639,1 53971U 22125H   24146.63496772 -.00024637  00000-0 -15373-2 0  9993,2 53971  53.2167 275.7541 0000974  80.8692 279.2411 15.08790190 90730,6918.033,95.441,540.571,539.224,0.0
53971.0,STARLINK-4639,PAYLOAD,2024-05-25 18:25:07,15.08815351,0.0001279,53.2173,275.1608,85.1342,274.9796,-0.0003069,-5.165e-05,0.0,0 STARLINK-4639,1 53971U 22125H   24146.76744695 -.00005165  00000-0 -30690-3 0  9992,2 53971  53.2173 275.1608 0001279  85.1342 274.9796 15.08815351 90829,6917.956,95.439,540.706,538.936,0.0
53971.0,STARLINK-4639,PAYLOAD,2024-05-26 11:54:22,15.08836931,0.0001201,53.218,271.8949,88.8128,271.3002,0.00058962,9.108e-05,0.0,0 STARLINK-4639,1 53971U 22125H   24147.49609386  .00009108  00000-0  58962-3 0  9991,2 53971  53.2180 271.8949 0001201  88.8128 271.3002 15.08836931 90935,6917.89,95.438,540.586,538.924,0.0
53971.0,STARLINK-4639,PAYLOAD,2024-05-26 15:05:08,15.08847602,0.0001077,53.2175,271.2952,94.3621,265.7494,0.0013865,0.00021852,0.0,0 STARLINK-4639,1 53971U 22125H   24147.62857384  .00021852  00000-0  13865-2 0  9991,2 53971  53.2175 271.2952 0001077  94.3621 265.7494 15.08847602 90881,6917.857,95.437,540.467,538.977,0.0
53971.0,STARLINK-4639,PAYLOAD,2024-05-27 11:45:08,15.08862119,0.0001243,53.2176,267.4306,109.5801,250.5326,0.00063933,9.908e-05,0.0,0 STARLINK-4639,1 53971U 22125H   24148.48968659  .00009908  00000-0  63933-3 0  9994,2 53971  53.2176 267.4306 0001243 109.5801 250.5326 15.08862119 91085,6917.813,95.436,540.538,538.818,0.0
53971.0,STARLINK-4639,PAYLOAD,2024-05-27 14:55:55,15.08860428,0.0001446,53.2181,266.8367,112.5739,247.5406,0.00054375,8.381e-05,0.0,0 STARLINK-4639,1 53971U 22125H   24148.62216525  .00008381  00000-0  54375-3 0  9992,2 53971  53.2181 266.8367 0001446 112.5739 247.5406 15.08860428 91031,6917.818,95.436,540.683,538.683,0.0
53971.0,STARLINK-4639,PAYLOAD,2024-05-28 13:11:18,15.08855332,0.0001281,53.2176,262.6731,112.2526,247.8602,0.00012824,1.754e-05,0.0,0 STARLINK-4639,1 53971U 22125H   24149.54951682  .00001754  00000-0  12824-3 0  9994,2 53971  53.2176 262.6731 0001281 112.2526 247.8602 15.08855332 91244,6917.834,95.437,540.585,538.812,0.0
53971.0,STARLINK-4639,PAYLOAD,2024-05-29 13:02:05,15.08842446,0.0001052,53.2171,258.2132,85.3627,274.7486,-0.00014736,-2.632e-05,0.0,0 STARLINK-4639,1 53971U 22125H   24150.54311975 -.00002632  00000-0 -14736-3 0  9993,2 53971  53.2171 258.2132 0001052  85.3627 274.7486 15.08842446 91390,6917.873,95.437,540.466,539.01,0.0
53971.0,STARLINK-4639,PAYLOAD,2024-05-29 14:37:28,15.08847522,0.0001023,53.2173,257.9127,79.0945,281.0162,-1.3352e-06,-3.09e-06,0.0,0 STARLINK-4639,1 53971U 22125H   24150.60936226 -.00000309  00000-0 -13352-5 0  9996,2 53971  53.2173 257.9127 0001023  79.0945 281.0162 15.08847522 91339,6917.857,95.437,540.43,539.015,0.0
